{
  "links" : {
    "next" : "https://api.nasa.gov/neo/rest/v1/feed?start_date=2000-08-23&end_date=2000-08-23&detailed=true&api_key=t0TVs3DtDT2H8Oy2Zy8m2eVrNsAVKAexjcZXUckd",
    "prev" : "https://api.nasa.gov/neo/rest/v1/feed?start_date=2000-08-21&end_date=2000-08-21&detailed=true&api_key=t0TVs3DtDT2H8Oy2Zy8m2eVrNsAVKAexjcZXUckd",
    "self" : "https://api.nasa.gov/neo/rest/v1/feed?start_date=2000-08-22&end_date=2000-08-22&detailed=true&api_key=t0TVs3DtDT2H8Oy2Zy8m2eVrNsAVKAexjcZXUckd"
  },
  "element_count" : 6,
  "near_earth_objects" : {
    "2000-08-22" : [ {
      "links" : {
        "self" : "https://api.nasa.gov/neo/rest/v1/neo/3092270?api_key=t0TVs3DtDT2H8Oy2Zy8m2eVrNsAVKAexjcZXUckd"
      },
      "neo_reference_id" : "3092270",
      "name" : "(2000 QX69)",
      "nasa_jpl_url" : "http://ssd.jpl.nasa.gov/sbdb.cgi?sstr=3092270",
      "absolute_magnitude_h" : 24.2,
      "estimated_diameter" : {
        "kilometers" : {
          "estimated_diameter_min" : 0.0384197891,
          "estimated_diameter_max" : 0.0859092601
        },
        "meters" : {
          "estimated_diameter_min" : 38.4197891064,
          "estimated_diameter_max" : 85.9092601232
        },
        "miles" : {
          "estimated_diameter_min" : 0.0238729428,
          "estimated_diameter_max" : 0.0533815229
        },
        "feet" : {
          "estimated_diameter_min" : 126.0491808919,
          "estimated_diameter_max" : 281.8545369825
        }
      },
      "is_potentially_hazardous_asteroid" : false,
      "close_approach_data" : [ {
        "close_approach_date" : "2000-08-22",
        "epoch_date_close_approach" : 966927600000,
        "relative_velocity" : {
          "kilometers_per_second" : "8.1978054639",
          "kilometers_per_hour" : "29512.0996699815",
          "miles_per_hour" : "18337.6710421615"
        },
        "miss_distance" : {
          "astronomical" : "0.0202208271",
          "lunar" : "7.865901947",
          "kilometers" : "3024992.75",
          "miles" : "1879643.375"
        },
        "orbiting_body" : "Earth"
      } ],
      "orbital_data" : {
        "orbit_id" : "12",
        "orbit_determination_date" : "2017-04-06 09:16:53",
        "orbit_uncertainty" : "7",
        "minimum_orbit_intersection" : ".000203622",
        "jupiter_tisserand_invariant" : "5.997",
        "epoch_osculation" : "2458000.5",
        "eccentricity" : ".2714607681197027",
        "semi_major_axis" : "1.010122093436153",
        "inclination" : "4.574015039376672",
        "ascending_node_longitude" : "150.1318031287222",
        "orbital_period" : "370.8166550618732",
        "perihelion_distance" : ".735913574057293",
        "perihelion_argument" : "74.18700034228601",
        "aphelion_distance" : "1.284330612815014",
        "perihelion_time" : "2458007.720171359108",
        "mean_anomaly" : "352.990439739431",
        "mean_motion" : ".9708301800520034",
        "equinox" : "J2000"
      }
    }, {
      "links" : {
        "self" : "https://api.nasa.gov/neo/rest/v1/neo/3330687?api_key=t0TVs3DtDT2H8Oy2Zy8m2eVrNsAVKAexjcZXUckd"
      },
      "neo_reference_id" : "3330687",
      "name" : "(2006 HU50)",
      "nasa_jpl_url" : "http://ssd.jpl.nasa.gov/sbdb.cgi?sstr=3330687",
      "absolute_magnitude_h" : 24.7,
      "estimated_diameter" : {
        "kilometers" : {
          "estimated_diameter_min" : 0.0305179233,
          "estimated_diameter_max" : 0.0682401509
        },
        "meters" : {
          "estimated_diameter_min" : 30.5179232594,
          "estimated_diameter_max" : 68.2401509401
        },
        "miles" : {
          "estimated_diameter_min" : 0.0189629525,
          "estimated_diameter_max" : 0.0424024508
        },
        "feet" : {
          "estimated_diameter_min" : 100.1244233463,
          "estimated_diameter_max" : 223.8850168104
        }
      },
      "is_potentially_hazardous_asteroid" : false,
      "close_approach_data" : [ {
        "close_approach_date" : "2000-08-22",
        "epoch_date_close_approach" : 966927600000,
        "relative_velocity" : {
          "kilometers_per_second" : "16.5343476539",
          "kilometers_per_hour" : "59523.6515541131",
          "miles_per_hour" : "36985.6822670543"
        },
        "miss_distance" : {
          "astronomical" : "0.391413492",
          "lunar" : "152.2598419189",
          "kilometers" : "58554624",
          "miles" : "36384156"
        },
        "orbiting_body" : "Earth"
      } ],
      "orbital_data" : {
        "orbit_id" : "12",
        "orbit_determination_date" : "2017-04-06 09:08:44",
        "orbit_uncertainty" : "7",
        "minimum_orbit_intersection" : ".00222505",
        "jupiter_tisserand_invariant" : "5.000",
        "epoch_osculation" : "2458000.5",
        "eccentricity" : ".2468201638520676",
        "semi_major_axis" : "1.287670569248081",
        "inclination" : "5.905679055909395",
        "ascending_node_longitude" : "46.91901584611216",
        "orbital_period" : "533.7102964138084",
        "perihelion_distance" : ".9698475083587842",
        "perihelion_argument" : "214.3591362115957",
        "aphelion_distance" : "1.605493630137377",
        "perihelion_time" : "2458162.544298817247",
        "mean_anomaly" : "250.6973540398431",
        "mean_motion" : ".6745232430758215",
        "equinox" : "J2000"
      }
    }, {
      "links" : {
        "self" : "https://api.nasa.gov/neo/rest/v1/neo/3454735?api_key=t0TVs3DtDT2H8Oy2Zy8m2eVrNsAVKAexjcZXUckd"
      },
      "neo_reference_id" : "3454735",
      "name" : "(2009 FY4)",
      "nasa_jpl_url" : "http://ssd.jpl.nasa.gov/sbdb.cgi?sstr=3454735",
      "absolute_magnitude_h" : 21.0,
      "estimated_diameter" : {
        "kilometers" : {
          "estimated_diameter_min" : 0.1677084622,
          "estimated_diameter_max" : 0.3750075218
        },
        "meters" : {
          "estimated_diameter_min" : 167.7084621628,
          "estimated_diameter_max" : 375.0075217981
        },
        "miles" : {
          "estimated_diameter_min" : 0.1042091748,
          "estimated_diameter_max" : 0.2330187988
        },
        "feet" : {
          "estimated_diameter_min" : 550.2246310023,
          "estimated_diameter_max" : 1230.3396778159
        }
      },
      "is_potentially_hazardous_asteroid" : true,
      "close_approach_data" : [ {
        "close_approach_date" : "2000-08-22",
        "epoch_date_close_approach" : 966927600000,
        "relative_velocity" : {
          "kilometers_per_second" : "14.4133786628",
          "kilometers_per_hour" : "51888.1631859896",
          "miles_per_hour" : "32241.2867307612"
        },
        "miss_distance" : {
          "astronomical" : "0.1830525893",
          "lunar" : "71.2074584961",
          "kilometers" : "27384278",
          "miles" : "17015800"
        },
        "orbiting_body" : "Earth"
      } ],
      "orbital_data" : {
        "orbit_id" : "36",
        "orbit_determination_date" : "2017-04-06 09:00:57",
        "orbit_uncertainty" : "1",
        "minimum_orbit_intersection" : ".0444529",
        "jupiter_tisserand_invariant" : "5.917",
        "epoch_osculation" : "2458000.5",
        "eccentricity" : ".3273990812523136",
        "semi_major_axis" : "1.012557364359228",
        "inclination" : "20.98149575212344",
        "ascending_node_longitude" : "162.6391693320454",
        "orbital_period" : "372.1584479236175",
        "perihelion_distance" : ".6810470135527529",
        "perihelion_argument" : "244.6385395892109",
        "aphelion_distance" : "1.344067715165704",
        "perihelion_time" : "2458152.425010226251",
        "mean_anomaly" : "213.0383926883866",
        "mean_motion" : ".9673299155468508",
        "equinox" : "J2000"
      }
    } ]
  }
}